{"type": "FeatureCollection", "features": [ {"type": "Feature", "properties": {"norad_id": 32440, "name": "FENGYUN 1C DEB", "group": "fengyun-1c-debris", "lat": -25.374566446276678, "lon": -161.96454219732917, "alt_km": 1214.9570464242443, "timestamp": "2025-12-03T20:47:58.510729+00:00", "meta": {"OBJECT_NAME": "FENGYUN 1C DEB", "OBJECT_ID": "1999-025DBC", "EPOCH": "2025-11-27T20:16:06.645504", "MEAN_MOTION": 13.61135656, "ECCENTRICITY": 0.03209529, "INCLINATION": 99.154, "RA_OF_ASC_NODE": 187.9971, "ARG_OF_PERICENTER": 129.5867, "MEAN_ANOMALY": 233.4091, "EPHEMERIS_TYPE": 0, "CLASSIFICATION_TYPE": "U", "NORAD_CAT_ID": 32440, "ELEMENT_SET_NO": 999, "REV_AT_EPOCH": 60083, "BSTAR": 0.0027513156, "MEAN_MOTION_DOT": 2.908e-05, "MEAN_MOTION_DDOT": 0}, "tle": {"line1": "1 32440U 99025DBC 25331.84452136  .00002908  00000+0  27513-2 0  9993", "line2": "2 32440  99.1540 187.9971 0320952 129.5867 233.4091 13.61135656600830"}}, "geometry": {"type": "Point", "coordinates": [-161.96454219732917, -25.374566446276678]}}, {"type": "Feature", "properties": {"norad_id": 32447, "name": "FENGYUN 1C DEB", "group": "fengyun-1c-debris", "lat": -13.694502980990016, "lon": 172.06725385283744, "alt_km": 948.1555248243585, "timestamp": "2025-12-03T20:47:58.510739+00:00", "meta": {"OBJECT_NAME": "FENGYUN 1C DEB", "OBJECT_ID": "1999-025DBK", "EPOCH": "2025-11-26T07:16:04.677024", "MEAN_MOTION": 13.9600218, "ECCENTRICITY": 0.00802127, "INCLINATION": 98.9321, "RA_OF_ASC_NODE": 346.9282, "ARG_OF_PERICENTER": 86.1501, "MEAN_ANOMALY": 274.8828, "EPHEMERIS_TYPE": 0, "CLASSIFICATION_TYPE": "U", "NORAD_CAT_ID": 32447, "ELEMENT_SET_NO": 999, "REV_AT_EPOCH": 67649, "BSTAR": 5.5043618e-05, "MEAN_MOTION_DOT": 3.5e-07, "MEAN_MOTION_DDOT": 0}, "tle": {"line1": "1 32447U 99025DBK 25330.30283191  .00000035  00000+0  55044-4 0  9994", "line2": "2 32447  98.9321 346.9282 0080212  86.1501 274.8828 13.96002180676493"}}, "geometry": {"type": "Point", "coordinates": [172.06725385283744, -13.694502980990016]}}, {"type": "Feature", "properties": {"norad_id": 32451, "name": "FENGYUN 1C DEB", "group": "fengyun-1c-debris", "lat": 22.287552098895183, "lon": 141.2007144438847, "alt_km": 872.8101590006981, "timestamp": "2025-12-03T20:47:58.510749+00:00", "meta": {"OBJECT_NAME": "FENGYUN 1C DEB", "OBJECT_ID": "1999-025DBP", "EPOCH": "2025-12-03T04:26:27.786048", "MEAN_MOTION": 13.86493767, "ECCENTRICITY": 0.01859404, "INCLINATION": 99.9694, "RA_OF_ASC_NODE": 316.3408, "ARG_OF_PERICENTER": 220.1452, "MEAN_ANOMALY": 138.584, "EPHEMERIS_TYPE": 0, "CLASSIFICATION_TYPE": "U", "NORAD_CAT_ID": 32451, "ELEMENT_SET_NO": 999, "REV_AT_EPOCH": 61632, "BSTAR": 0.0026023894, "MEAN_MOTION_DOT": 3.41e-05, "MEAN_MOTION_DDOT": 0}, "tle": {"line1": "1 32451U 99025DBP 25337.18504382  .00003410  00000+0  26024-2 0  9994", "line2": "2 32451  99.9694 316.3408 0185940 220.1452 138.5840 13.86493767616322"}}, "geometry": {"type": "Point", "coordinates": [141.2007144438847, 22.287552098895183]}}, {"type": "Feature", "properties": {"norad_id": 32453, "name": "FENGYUN 1C DEB", "group": "fengyun-1c-debris", "lat": -62.52157520391882, "lon": -94.16673187281127, "alt_km": 862.8565557482243, "timestamp": "2025-12-03T20:47:58.510759+00:00", "meta": {"OBJECT_NAME": "FENGYUN 1C DEB", "OBJECT_ID": "1999-025DBR", "EPOCH": "2025-11-28T10:57:12.038976", "MEAN_MOTION": 14.02200263, "ECCENTRICITY": 0.00971069, "INCLINATION": 99.3715, "RA_OF_ASC_NODE": 241.7597, "ARG_OF_PERICENTER": 245.8452, "MEAN_ANOMALY": 113.2535, "EPHEMERIS_TYPE": 0, "CLASSIFICATION_TYPE": "U", "NORAD_CAT_ID": 32453, "ELEMENT_SET_NO": 999, "REV_AT_EPOCH": 93228, "BSTAR": 0.00096884375, "MEAN_MOTION_DOT": 1.498e-05, "MEAN_MOTION_DDOT": 0}, "tle": {"line1": "1 32453U 99025DBR 25332.45638934  .00001498  00000+0  96884-3 0  9998", "line2": "2 32453  99.3715 241.7597 0097106 245.8452 113.2535 14.02200263932285"}}, "geometry": {"type": "Point", "coordinates": [-94.16673187281127, -62.52157520391882]}}, {"type": "Feature", "properties": {"norad_id": 32455, "name": "FENGYUN 1C DEB", "group": "fengyun-1c-debris", "lat": -45.002028724049616, "lon": 179.6297918581565, "alt_km": 1070.2868182122666, "timestamp": "2025-12-03T20:47:58.510770+00:00", "meta": {"OBJECT_NAME": "FENGYUN 1C DEB", "OBJECT_ID": "1999-025DBT", "EPOCH": "2025-11-30T08:31:26.630112", "MEAN_MOTION": 13.92295541, "ECCENTRICITY": 0.02377178, "INCLINATION": 101.7332, "RA_OF_ASC_NODE": 163.1966, "ARG_OF_PERICENTER": 176.0844, "MEAN_ANOMALY": 184.2238, "EPHEMERIS_TYPE": 0, "CLASSIFICATION_TYPE": "U", "NORAD_CAT_ID": 32455, "ELEMENT_SET_NO": 999, "REV_AT_EPOCH": 64243, "BSTAR": 0.0029260204, "MEAN_MOTION_DOT": 4.672e-05, "MEAN_MOTION_DDOT": 0}, "tle": {"line1": "1 32455U 99025DBT 25334.35516933  .00004672  00000+0  29260-2 0  9995", "line2": "2 32455 101.7332 163.1966 0237717 176.0844 184.2238 13.92295541642435"}}, "geometry": {"type": "Point", "coordinates": [179.6297918581565, -45.002028724049616]}}, {"type": "Feature", "properties": {"norad_id": 32456, "name": "FENGYUN 1C DEB", "group": "fengyun-1c-debris", "lat": -11.42167370006371, "lon": -67.5624430145598, "alt_km": 946.8535135163083, "timestamp": "2025-12-03T20:47:58.510780+00:00", "meta": {"OBJECT_NAME": "FENGYUN 1C DEB", "OBJECT_ID": "1999-025DBU", "EPOCH": "2025-11-28T15:45:38.634624", "MEAN_MOTION": 13.3556135, "ECCENTRICITY": 0.03790377, "INCLINATION": 103.6671, "RA_OF_ASC_NODE": 108.2999, "ARG_OF_PERICENTER": 253.9297, "MEAN_ANOMALY": 101.9772, "EPHEMERIS_TYPE": 0, "CLASSIFICATION_TYPE": "U", "NORAD_CAT_ID": 32456, "ELEMENT_SET_NO": 999, "REV_AT_EPOCH": 60428, "BSTAR": 0.0020707074, "MEAN_MOTION_DOT": 1.513e-05, "MEAN_MOTION_DDOT": 0}, "tle": {"line1": "1 32456U 99025DBU 25332.65669716  .00001513  00000+0  20707-2 0  9993", "line2": "2 32456 103.6671 108.2999 0379037 253.9297 101.9772 13.35561350604289"}}, "geometry": {"type": "Point", "coordinates": [-67.5624430145598, -11.42167370006371]}}, {"type": "Feature", "properties": {"norad_id": 32458, "name": "FENGYUN 1C DEB", "group": "fengyun-1c-debris", "lat": 28.402361366061633, "lon": -178.1397744466379, "alt_km": 695.1972355846774, "timestamp": "2025-12-03T20:47:58.510790+00:00", "meta": {"OBJECT_NAME": "FENGYUN 1C DEB", "OBJECT_ID": "1999-025DBW", "EPOCH": "2025-12-01T20:28:51.339936", "MEAN_MOTION": 14.61990676, "ECCENTRICITY": 0.00410387, "INCLINATION": 99.0471, "RA_OF_ASC_NODE": 354.7155, "ARG_OF_PERICENTER": 47.1419, "MEAN_ANOMALY": 313.3215, "EPHEMERIS_TYPE": 0, "CLASSIFICATION_TYPE": "U", "NORAD_CAT_ID": 32458, "ELEMENT_SET_NO": 999, "REV_AT_EPOCH": 67630, "BSTAR": 0.0017761314, "MEAN_MOTION_DOT": 8.964e-05, "MEAN_MOTION_DDOT": 0}, "tle": {"line1": "1 32458U 99025DBW 25335.85337199  .00008964  00000+0  17761-2 0  9990", "line2": "2 32458  99.0471 354.7155 0041038  47.1419 313.3215 14.61990676676305"}}, "geometry": {"type": "Point", "coordinates": [-178.1397744466379, 28.402361366061633]}}, {"type": "Feature", "properties": {"norad_id": 32459, "name": "FENGYUN 1C DEB", "group": "fengyun-1c-debris", "lat": 62.9819776036563, "lon": -171.03636266518922, "alt_km": 759.9786702693491, "timestamp": "2025-12-03T20:47:58.510800+00:00", "meta": {"OBJECT_NAME": "FENGYUN 1C DEB", "OBJECT_ID": "1999-025DBX", "EPOCH": "2025-12-01T11:39:14.293440", "MEAN_MOTION": 14.42724223, "ECCENTRICITY": 0.02128066, "INCLINATION": 98.3034, "RA_OF_ASC_NODE": 350.0004, "ARG_OF_PERICENTER": 220.4744, "MEAN_ANOMALY": 138.0452, "EPHEMERIS_TYPE": 0, "CLASSIFICATION_TYPE": "U", "NORAD_CAT_ID": 32459, "ELEMENT_SET_NO": 999, "REV_AT_EPOCH": 94388, "BSTAR": 0.00065445905, "MEAN_MOTION_DOT": 2.812e-05, "MEAN_MOTION_DDOT": 0}, "tle": {"line1": "1 32459U 99025DBX 25335.48558210  .00002812  00000+0  65446-3 0  9999", "line2": "2 32459  98.3034 350.0004 0212806 220.4744 138.0452 14.42724223943882"}}, "geometry": {"type": "Point", "coordinates": [-171.03636266518922, 62.9819776036563]}}, {"type": "Feature", "properties": {"norad_id": 32460, "name": "FENGYUN 1C DEB", "group": "fengyun-1c-debris", "lat": 57.292312598619105, "lon": 111.57577450227458, "alt_km": 923.7537450850414, "timestamp": "2025-12-03T20:47:58.510810+00:00", "meta": {"OBJECT_NAME": "FENGYUN 1C DEB", "OBJECT_ID": "1999-025DBY", "EPOCH": "2025-12-03T03:14:00.944160", "MEAN_MOTION": 13.89519462, "ECCENTRICITY": 0.01856328, "INCLINATION": 98.0192, "RA_OF_ASC_NODE": 123.6253, "ARG_OF_PERICENTER": 150.9185, "MEAN_ANOMALY": 210.247, "EPHEMERIS_TYPE": 0, "CLASSIFICATION_TYPE": "U", "NORAD_CAT_ID": 32460, "ELEMENT_SET_NO": 999, "REV_AT_EPOCH": 65120, "BSTAR": 0.0017619598, "MEAN_MOTION_DOT": 2.44e-05, "MEAN_MOTION_DDOT": 0}, "tle": {"line1": "1 32460U 99025DBY 25337.13473315  .00002440  00000+0  17620-2 0  9994", "line2": "2 32460  98.0192 123.6253 0185632 150.9185 210.2470 13.89519462651200"}}, "geometry": {"type": "Point", "coordinates": [111.57577450227458, 57.292312598619105]}}, {"type": "Feature", "properties": {"norad_id": 32461, "name": "FENGYUN 1C DEB", "group": "fengyun-1c-debris", "lat": -25.25239099480277, "lon": -161.85732201974724, "alt_km": 1160.904674071604, "timestamp": "2025-12-03T20:47:58.510821+00:00", "meta": {"OBJECT_NAME": "FENGYUN 1C DEB", "OBJECT_ID": "1999-025DBZ", "EPOCH": "2025-12-03T02:25:21.166752", "MEAN_MOTION": 13.72796083, "ECCENTRICITY": 0.02319021, "INCLINATION": 98.3345, "RA_OF_ASC_NODE": 193.5106, "ARG_OF_PERICENTER": 142.9947, "MEAN_ANOMALY": 10.0781, "EPHEMERIS_TYPE": 0, "CLASSIFICATION_TYPE": "U", "NORAD_CAT_ID": 32461, "ELEMENT_SET_NO": 999, "REV_AT_EPOCH": 67162, "BSTAR": 0.0012933727, "MEAN_MOTION_DOT": 1.409e-05, "MEAN_MOTION_DDOT": 0}, "tle": {"line1": "1 32461U 99025DBZ 25337.10093943  .00001409  00000+0  12934-2 0  9994", "line2": "2 32461  98.3345 193.5106 0231902 142.9947  10.0781 13.72796083671623"}}, "geometry": {"type": "Point", "coordinates": [-161.85732201974724, -25.25239099480277]}}]}